{"fetched_at":"2026-04-17T13:16:02Z","count":1800,"tles":[{"name":"QIANFAN-111","line1":"1 68638U 26075C   26106.59223638  .00000068  00000+0  24480-4 0  9999","line2":"2 68638  88.9884 327.6762 0016035 181.6188 178.4954 14.21284201  1283","category":"Other"}]}