{
  "norad_id": 68638,
  "name": "QIANFAN GROUP 7 OBJECT C",
  "history": [
    {
      "epoch": "2026-04-16T14:12:49.223232Z",
      "apogee_km": 832.557554142636,
      "perigee_km": 809.4684402715939,
      "latitude_deg": 3.770070003550997e-05,
      "longitude_deg": -90.26662993195018,
      "height_km": 835.6109054663519,
      "semi_major_axis_km": 7199.149997207115,
      "eccentricity": 0.0016036,
      "inclination_deg": 88.9884,
      "raan_deg": 327.6762,
      "arg_perigee_deg": 181.6188,
      "mean_anomaly_deg": 178.4954,
      "mean_motion_rev_day": 14.21284201
    }
  ]
}